STARLINK-3826           
1 52347U 22045S   24320.93609178  .00001488  00000+0  11153-3 0  9992
2 52347  53.2164 188.3397 0001497  96.7470 263.3693 15.08841065143500
STARLINK-3829           
1 52348U 22045T   24320.91673161  .00001703  00000+0  12506-3 0  9997
2 52348  53.2162 188.4117 0001964  96.4181 263.7035 15.08844827143508
STARLINK-3819           
1 52349U 22045U   24320.92778028  .00003711  00000+0  25107-3 0  9999
2 52349  53.2152 188.3653 0001612  91.2780 268.8397 15.08848725143508
STARLINK-3754           
1 52350U 22045V   24320.91304498  .00001477  00000+0  11082-3 0  9990
2 52350  53.2155 188.4293 0001129  92.3701 267.7420 15.08850542143507
STARLINK-3838           
1 52352U 22045X   24321.03449612 -.00000177  00000+0  69729-5 0  9994
2 52352  53.2145 187.8879 0001321  94.8131 265.3012 15.08840555143525
STARLINK-3807           
1 52353U 22045Y   24320.90937057  .00000532  00000+0  51507-4 0  9993
2 52353  53.2169 188.4420 0001419 101.0018 259.1134 15.08837686143509
STARLINK-3876           
1 52354U 22045Z   24321.02345010  .00001307  00000+0  10019-3 0  9993
2 52354  53.2148 187.9330 0001459  85.0009 275.1150 15.08846105143520
STARLINK-3877           
1 52355U 22045AA  24321.03817369 -.00000279  00000+0  52976-6 0  9995
2 52355  53.2150 187.8645 0001344  90.7014 269.4132 15.08842839143520
STARLINK-3801           
1 52356U 22045AB  24320.89468315 -.00003320  00000+0 -19076-3 0  9994
2 52356  53.2154 188.5410 0001733  81.1299 278.9889 15.08812534143505
STARLINK-3821           
1 52357U 22045AC  24321.03082134  .00004731  00000+0  31529-3 0  9995
2 52357  53.2157 187.9017 0001510  91.5539 268.5627 15.08821229143528
STARLINK-3837           
1 52358U 22045AD  24320.35001103  .00000543  00000+0  52197-4 0  9999
2 52358  53.2159 190.9583 0001568  85.2117 274.9054 15.08829942143422
STARLINK-3853           
1 52359U 22045AE  24320.89561024  .00001453  00000+0  10935-3 0  9996
2 52359  53.2150 188.5170 0001183  89.9313 270.1815 15.08846595143506
STARLINK-3824           
1 52360U 22045AF  24320.34357511  .00001940  00000+0  13992-3 0  9999
2 52360  53.2146 180.9884 0001341  92.6455 267.4691 15.08841491143540
STARLINK-3728           
1 52361U 22045AG  24320.95353188 -.00003787  00000+0 -22002-3 0  9998
2 52361  53.2136 188.2533 0001542  94.6213 265.4956 15.08831447143518
STARLINK-3848           
1 52362U 22045AH  24321.00227941  .00000027  00000+0  19762-4 0  9995
2 52362  53.2145 178.0315 0001584  70.2265 289.8898 15.08850968143656
STARLINK-3830           
1 52363U 22045AJ  24320.94985590  .00006721  00000+0  43996-3 0  9991
2 52363  53.2155 188.2684 0001387 102.8849 257.2298 15.08838680143516
STARLINK-3820           
1 52364U 22045AK  24320.98755408  .00005471  00000+0  36138-3 0  9990
2 52364  53.2143 178.0108 0001253 117.1860 242.9260 15.08856907143653
STARLINK-3874           
1 52365U 22045AL  24321.00965182 -.00003743  00000+0 -21728-3 0  9998
2 52365  53.2137 177.9987 0001572  83.1326 276.9845 15.08830050143650
STARLINK-3808           
1 52366U 22045AM  24320.99125885  .00007275  00000+0  47458-3 0  9994
2 52366  53.2140 178.0812 0001698  99.2173 260.9012 15.08848656143651
STARLINK-3817           
1 52367U 22045AN  24320.93237039  .00002653  00000+0  18465-3 0  9995
2 52367  53.2152 178.3430 0001309  88.3529 271.7613 15.08848306143645
STARLINK-3834           
1 52368U 22045AP  24320.91396857  .00002015  00000+0  14464-3 0  9995
2 52368  53.2150 178.4264 0001297  93.1003 267.0138 15.08850166143633
STARLINK-3841           
1 52369U 22045AQ  24320.99493502  .00000202  00000+0  30774-4 0  9998
2 52369  53.2148 178.0640 0001584  91.1100 269.0073 15.08838668143655
STARLINK-3827           
1 52370U 22045AR  24320.98855917 -.00000853  00000+0 -35542-4 0  9993
2 52370  53.2158 178.1028 0001275  52.1059 308.0049 15.08819772143658
STARLINK-3798           
1 52371U 22045AS  24320.98485431  .00005288  00000+0  35012-3 0  9990
2 52371  53.2148 178.1200 0001367  96.2428 263.8720 15.08834590143649
STARLINK-3796           
1 52372U 22045AT  24320.31412858  .00001269  00000+0  97771-4 0  9997
2 52372  53.2153 181.1212 0001179  83.2723 276.8403 15.08845421143544
STARLINK-3550           
1 52373U 22045AU  24319.83941225  .00000846  00000+0  71244-4 0  9995
2 52373  53.2158 183.2476 0002056  95.3282 264.7944 15.08844946143484
STARLINK-3762           
1 52374U 22045AV  24320.90294506 -.00003305  00000+0 -18981-3 0  9992
2 52374  53.2141 178.4755 0001195  87.9175 272.1954 15.08813698143646
STARLINK-3785           
1 52375U 22045AW  24321.03909004 -.00001213  00000+0 -58132-4 0  9993
2 52375  53.2161 177.8677 0001313  88.8676 271.2467 15.08831123143667
STARLINK-3767           
1 52376U 22045AX  24320.89554605  .00003090  00000+0  21200-3 0  9998
2 52376  53.2168 178.5124 0001218  91.1983 268.9149 15.08867358143649
STARLINK-3805           
1 52377U 22045AY  24320.91768487  .00000201  00000+0  30727-4 0  9993
2 52377  53.2153 178.6303 0001629  86.4207 273.6972 15.08836013143636
STARLINK-3806           
1 52378U 22045AZ  24321.02066416  .00002784  00000+0  19284-3 0  9992
2 52378  53.2161 177.9441 0001460  89.4883 270.6276 15.08864029143662
STARLINK-3800           
1 52379U 22045BA  24321.02437711  .00008109  00000+0  52666-3 0  9991
2 52379  53.2140 177.9283 0001083 102.4058 257.7055 15.08863143143662
STARLINK-3793           
1 52380U 22045BB  24321.00321768  .00000665  00000+0  59882-4 0  9992
2 52380  53.2148 168.0559 0001865  91.9008 268.2198 15.08842520143799
STARLINK-3803           
1 52381U 22045BC  24321.25002315  .01173776  00000+0  33725-1 0  9994
2 52381  53.2174 176.0264 0001325  68.6083 216.9487 15.32743394143704
STARLINK-3799           
1 52382U 22045BD  24321.01333475  .00000075  00000+0  22807-4 0  9995
2 52382  53.2135 177.9906 0001186  86.5240 273.5888 15.08839566143663
STARLINK-3811           
1 52383U 22045BE  24319.91025181  .00002530  00000+0  17695-3 0  9990
2 52383  53.2143 172.9645 0001447  83.4390 276.6767 15.08847644143633
JILIN-1 GAOFEN 4A       
1 52388U 22046A   24321.18257660  .00043908  00000+0  14878-2 0  9990
2 52388  97.4985  48.3808 0011058 284.3207  75.6805 15.30371040140912
JILIN-1 GAOFEN 3D04     
1 52389U 22046B   24321.13736600  .00036209  00000+0  13956-2 0  9994
2 52389  97.5032  50.4316 0004917 336.9434  23.1583 15.26228295141029
JILIN-1 GAOFEN 3D05     
1 52390U 22046C   24321.13208328  .00037525  00000+0  14188-2 0  9997
2 52390  97.4949  49.7069 0000951  41.4261 318.7050 15.26867890141036
JILIN-1 GAOFEN 3D06     
1 52391U 22046D   24321.14799318  .00037418  00000+0  14187-2 0  9993
2 52391  97.5113  51.5215 0001480 288.4241  71.6836 15.26775853141049
JILIN-1 GAOFEN 3D07     
1 52392U 22046E   24321.18576973  .00041417  00000+0  14300-2 0  9999
2 52392  97.5027  51.1748 0002195  80.7612 279.3876 15.29829204141088
BRO-6                   
1 52422U 22047AE  24321.18493822  .00024728  00000+0  88515-3 0  9991
2 52422  97.3858  39.2607 0005907 359.2804   0.8427 15.28748242142287
JILIN-1 KUANFU 01C      
1 52443U 22048A   24321.17617328  .00012567  00000+0  65981-3 0  9993
2 52443  97.5832  34.6814 0010150 342.1000  17.9873 15.15819098139912
JILIN-1 GAOFEN 3D27     
1 52444U 22048B   24321.12781815  .00033682  00000+0  13316-2 0  9997
2 52444  97.5888  40.9930 0007641 313.8061  46.2544 15.25381926140328
JILIN-1 GAOFEN 3D28     
1 52445U 22048C   24321.16609853  .00033181  00000+0  13095-2 0  9991
2 52445  97.5860  40.7791 0008759 319.0666  40.9913 15.25435310140331
JILIN-1 GAOFEN 3D29     
1 52446U 22048D   24321.17893215  .00033832  00000+0  13195-2 0  9994
2 52446  97.5889  41.2380 0008274 313.8713  46.1840 15.25829991140340
JILIN-1 GAOFEN 3D30     
1 52447U 22048E   24321.12597763  .00036493  00000+0  13413-2 0  9998
2 52447  97.5869  41.4000 0008464 293.5715  66.4634 15.27779398140362
JILIN-1 GAOFEN 3D31     
1 52448U 22048F   24321.17972065  .00034644  00000+0  13388-2 0  9993
2 52448  97.5872  41.2070 0007023 330.2069  29.8768 15.26139676140351
JILIN-1 GAOFEN 3D32     
1 52449U 22048G   24321.15204121  .00057256  00000+0  14646-2 0  9995
2 52449  97.5889  44.6911 0007419 311.3910  48.6696 15.39207288140566
JILIN-1 GAOFEN 3D33     
1 52450U 22048H   24321.14822528  .00044688  00000+0  13855-2 0  9999
2 52450  97.5900  43.8602 0008987 301.1376  58.8984 15.33244642140511
STARLINK-3870           
1 52451U 22049A   24320.46501664 -.00001378  00000+0 -68514-4 0  9995
2 52451  53.2179  60.4415 0001688  90.7703 269.3482 15.08835540139764
STARLINK-3909           
1 52452U 22049B   24321.00596147  .00000276  00000+0  35463-4 0  9998
2 52452  53.2177  57.8871 0001369  87.2629 272.8520 15.08837404140005
STARLINK-3872           
1 52453U 22049C   24320.52389584 -.00000734  00000+0 -28027-4 0  9999
2 52453  53.2180  60.1798 0001506  84.0797 276.0367 15.08831757139771
STARLINK-3888           
1 52454U 22049D   24320.46133926 -.00001402  00000+0 -70032-4 0  9996
2 52454  53.2173  60.4572 0001363 103.0708 257.0437 15.08829516139768
STARLINK-3890           
1 52455U 22049E   24320.58740665 -.00002967  00000+0 -16845-3 0  9992
2 52455  53.2175  59.8911 0001262  81.5651 278.5484 15.08829303139781
STARLINK-3896           
1 52456U 22049F   24320.64995802  .00001628  00000+0  12036-3 0  9994
2 52456  53.2185  59.6145 0001445  99.1894 260.9262 15.08845184139792
STARLINK-3899           
1 52457U 22049G   24320.97651238  .00001621  00000+0  11986-3 0  9999
2 52457  53.2186  58.1368 0001219  94.4942 265.6189 15.08857919140001
STARLINK-3898           
1 52458U 22049H   24320.97379736 -.00001039  00000+0 -47188-4 0  9999
2 52458  53.2180  58.1563 0001273  93.5961 266.5176 15.08848520140008
STARLINK-3856           
1 52459U 22049J   24320.56161422 -.00000177  00000+0  69379-5 0  9994
2 52459  53.2187  50.0122 0001317 105.9248 254.1890 15.08834740139916
